{"fetched_at":"2026-03-29T16:36:15Z","count":15609,"tles":[{"name":"STARLINK-31473","line1":"1 59339U 24057V   26087.67141030  .00000025  00000+0  10426-4 0  9995","line2":"2 59339  43.0021  79.7406 0000924 282.9759  77.0989 15.27573719112743","category":"Starlink"}]}